{"type": "FeatureCollection", "features": [ {"type": "Feature", "properties": {"norad_id": 38795, "name": "FENGYUN 1C DEB", "group": "fengyun-1c-debris", "lat": -46.87916502990423, "lon": 172.4011201656077, "alt_km": 906.070766137017, "timestamp": "2025-12-03T10:52:57.744222+00:00", "meta": {"OBJECT_NAME": "FENGYUN 1C DEB", "OBJECT_ID": "1999-025EUK", "EPOCH": "2025-12-02T08:24:42.599520", "MEAN_MOTION": 13.29800561, "ECCENTRICITY": 0.05040855, "INCLINATION": 98.7022, "RA_OF_ASC_NODE": 0.8783, "ARG_OF_PERICENTER": 281.6333, "MEAN_ANOMALY": 72.8653, "EPHEMERIS_TYPE": 0, "CLASSIFICATION_TYPE": "U", "NORAD_CAT_ID": 38795, "ELEMENT_SET_NO": 999, "REV_AT_EPOCH": 78374, "BSTAR": 0.003965023, "MEAN_MOTION_DOT": 3.692e-05, "MEAN_MOTION_DDOT": 0}, "tle": {"line1": "1 38795U 99025EUK 25336.35049305  .00003692  00000+0  39650-2 0  9999", "line2": "2 38795  98.7022   0.8783 0504085 281.6333  72.8653 13.29800561783741"}}, "geometry": {"type": "Point", "coordinates": [172.4011201656077, -46.87916502990423]}}, {"type": "Feature", "properties": {"norad_id": 38797, "name": "FENGYUN 1C DEB", "group": "fengyun-1c-debris", "lat": 64.31302173144225, "lon": -149.77759223460305, "alt_km": 1205.0782360457088, "timestamp": "2025-12-03T10:52:57.744232+00:00", "meta": {"OBJECT_NAME": "FENGYUN 1C DEB", "OBJECT_ID": "1999-025EUM", "EPOCH": "2025-12-02T22:12:06.827328", "MEAN_MOTION": 13.61602332, "ECCENTRICITY": 0.0245064, "INCLINATION": 99.4847, "RA_OF_ASC_NODE": 230.0465, "ARG_OF_PERICENTER": 246.4829, "MEAN_ANOMALY": 111.0391, "EPHEMERIS_TYPE": 0, "CLASSIFICATION_TYPE": "U", "NORAD_CAT_ID": 38797, "ELEMENT_SET_NO": 999, "REV_AT_EPOCH": 59149, "BSTAR": 0.00041657, "MEAN_MOTION_DOT": 3.45e-06, "MEAN_MOTION_DDOT": 0}, "tle": {"line1": "1 38797U 99025EUM 25336.92507902  .00000345  00000+0  41657-3 0  9999", "line2": "2 38797  99.4847 230.0465 0245064 246.4829 111.0391 13.61602332591494"}}, "geometry": {"type": "Point", "coordinates": [-149.77759223460305, 64.31302173144225]}}, {"type": "Feature", "properties": {"norad_id": 38799, "name": "FENGYUN 1C DEB", "group": "fengyun-1c-debris", "lat": 48.86036537271228, "lon": 43.19934838165618, "alt_km": 624.5747238375725, "timestamp": "2025-12-03T10:52:57.744242+00:00", "meta": {"OBJECT_NAME": "FENGYUN 1C DEB", "OBJECT_ID": "1999-025EUP", "EPOCH": "2025-11-26T11:13:58.529856", "MEAN_MOTION": 14.48569792, "ECCENTRICITY": 0.01649657, "INCLINATION": 98.4067, "RA_OF_ASC_NODE": 45.9896, "ARG_OF_PERICENTER": 40.0513, "MEAN_ANOMALY": 321.2709, "EPHEMERIS_TYPE": 0, "CLASSIFICATION_TYPE": "U", "NORAD_CAT_ID": 38799, "ELEMENT_SET_NO": 999, "REV_AT_EPOCH": 63803, "BSTAR": 0.00099755644, "MEAN_MOTION_DOT": 4.406e-05, "MEAN_MOTION_DDOT": 0}, "tle": {"line1": "1 38799U 99025EUP 25330.46803854  .00004406  00000+0  99756-3 0  9994", "line2": "2 38799  98.4067  45.9896 0164965  40.0513 321.2709 14.48569792638036"}}, "geometry": {"type": "Point", "coordinates": [43.19934838165618, 48.86036537271228]}}, {"type": "Feature", "properties": {"norad_id": 38801, "name": "FENGYUN 1C DEB", "group": "fengyun-1c-debris", "lat": 43.903157434584514, "lon": 20.328460629570213, "alt_km": 577.8721072436992, "timestamp": "2025-12-03T10:52:57.744252+00:00", "meta": {"OBJECT_NAME": "FENGYUN 1C DEB", "OBJECT_ID": "1999-025EUR", "EPOCH": "2025-11-30T22:34:32.153088", "MEAN_MOTION": 14.2473338, "ECCENTRICITY": 0.03480153, "INCLINATION": 98.3753, "RA_OF_ASC_NODE": 26.0769, "ARG_OF_PERICENTER": 26.6828, "MEAN_ANOMALY": 95.3295, "EPHEMERIS_TYPE": 0, "CLASSIFICATION_TYPE": "U", "NORAD_CAT_ID": 38801, "ELEMENT_SET_NO": 999, "REV_AT_EPOCH": 64192, "BSTAR": 0.00055786382, "MEAN_MOTION_DOT": 2.4e-05, "MEAN_MOTION_DDOT": 0}, "tle": {"line1": "1 38801U 99025EUR 25334.94064992  .00002400  00000+0  55786-3 0  9994", "line2": "2 38801  98.3753  26.0769 0348015  26.6828  95.3295 14.24733380641920"}}, "geometry": {"type": "Point", "coordinates": [20.328460629570213, 43.903157434584514]}}, {"type": "Feature", "properties": {"norad_id": 38803, "name": "FENGYUN 1C DEB", "group": "fengyun-1c-debris", "lat": -49.130252687055446, "lon": -8.339309824332814, "alt_km": 837.7879788811797, "timestamp": "2025-12-03T10:52:57.744263+00:00", "meta": {"OBJECT_NAME": "FENGYUN 1C DEB", "OBJECT_ID": "1999-025EUT", "EPOCH": "2025-12-02T23:18:31.375008", "MEAN_MOTION": 14.23518858, "ECCENTRICITY": 0.0064488, "INCLINATION": 99.1384, "RA_OF_ASC_NODE": 340.4394, "ARG_OF_PERICENTER": 63.9975, "MEAN_ANOMALY": 296.7825, "EPHEMERIS_TYPE": 0, "CLASSIFICATION_TYPE": "U", "NORAD_CAT_ID": 38803, "ELEMENT_SET_NO": 999, "REV_AT_EPOCH": 60073, "BSTAR": 0.0027015, "MEAN_MOTION_DOT": 6.236e-05, "MEAN_MOTION_DDOT": 0}, "tle": {"line1": "1 38803U 99025EUT 25336.97119647  .00006236  00000+0  27015-2 0  9993", "line2": "2 38803  99.1384 340.4394 0064488  63.9975 296.7825 14.23518858600734"}}, "geometry": {"type": "Point", "coordinates": [-8.339309824332814, -49.130252687055446]}}, {"type": "Feature", "properties": {"norad_id": 38809, "name": "FENGYUN 1C DEB", "group": "fengyun-1c-debris", "lat": 81.13022409994431, "lon": -87.69497531401495, "alt_km": 828.9147579531809, "timestamp": "2025-12-03T10:52:57.744273+00:00", "meta": {"OBJECT_NAME": "FENGYUN 1C DEB", "OBJECT_ID": "1999-025EUZ", "EPOCH": "2025-11-30T06:16:57.351360", "MEAN_MOTION": 14.1810945, "ECCENTRICITY": 0.0223582, "INCLINATION": 98.5903, "RA_OF_ASC_NODE": 344.8226, "ARG_OF_PERICENTER": 4.0762, "MEAN_ANOMALY": 356.2169, "EPHEMERIS_TYPE": 0, "CLASSIFICATION_TYPE": "U", "NORAD_CAT_ID": 38809, "ELEMENT_SET_NO": 999, "REV_AT_EPOCH": 69029, "BSTAR": 0.00062054472, "MEAN_MOTION_DOT": 1.585e-05, "MEAN_MOTION_DDOT": 0}, "tle": {"line1": "1 38809U 99025EUZ 25334.26177490  .00001585  00000+0  62054-3 0  9994", "line2": "2 38809  98.5903 344.8226 0223582   4.0762 356.2169 14.18109450690295"}}, "geometry": {"type": "Point", "coordinates": [-87.69497531401495, 81.13022409994431]}}, {"type": "Feature", "properties": {"norad_id": 38813, "name": "FENGYUN 1C DEB", "group": "fengyun-1c-debris", "lat": 57.96743909870931, "lon": 169.3606664309045, "alt_km": 815.0633507086459, "timestamp": "2025-12-03T10:52:57.744283+00:00", "meta": {"OBJECT_NAME": "FENGYUN 1C DEB", "OBJECT_ID": "1999-025EVD", "EPOCH": "2025-12-01T17:44:02.872896", "MEAN_MOTION": 14.20124404, "ECCENTRICITY": 0.00061305, "INCLINATION": 99.3455, "RA_OF_ASC_NODE": 332.2907, "ARG_OF_PERICENTER": 143.0544, "MEAN_ANOMALY": 217.1054, "EPHEMERIS_TYPE": 0, "CLASSIFICATION_TYPE": "U", "NORAD_CAT_ID": 38813, "ELEMENT_SET_NO": 999, "REV_AT_EPOCH": 48094, "BSTAR": 0.00057863014, "MEAN_MOTION_DOT": 1.185e-05, "MEAN_MOTION_DDOT": 0}, "tle": {"line1": "1 38813U 99025EVD 25335.73892214  .00001185  00000+0  57863-3 0  9998", "line2": "2 38813  99.3455 332.2907 0006130 143.0544 217.1054 14.20124404480944"}}, "geometry": {"type": "Point", "coordinates": [169.3606664309045, 57.96743909870931]}}, {"type": "Feature", "properties": {"norad_id": 38817, "name": "FENGYUN 1C DEB", "group": "fengyun-1c-debris", "lat": 40.00569193271385, "lon": -158.35369788116486, "alt_km": 848.9254364763674, "timestamp": "2025-12-03T10:52:57.744294+00:00", "meta": {"OBJECT_NAME": "FENGYUN 1C DEB", "OBJECT_ID": "1999-025EVH", "EPOCH": "2025-12-02T22:18:37.160064", "MEAN_MOTION": 13.57637941, "ECCENTRICITY": 0.0290766, "INCLINATION": 98.6004, "RA_OF_ASC_NODE": 208.4839, "ARG_OF_PERICENTER": 69.8756, "MEAN_ANOMALY": 293.3418, "EPHEMERIS_TYPE": 0, "CLASSIFICATION_TYPE": "U", "NORAD_CAT_ID": 38817, "ELEMENT_SET_NO": 999, "REV_AT_EPOCH": 65701, "BSTAR": 0.0023793, "MEAN_MOTION_DOT": 2.216e-05, "MEAN_MOTION_DDOT": 0}, "tle": {"line1": "1 38817U 99025EVH 25336.92959676  .00002216  00000+0  23793-2 0  9990", "line2": "2 38817  98.6004 208.4839 0290766  69.8756 293.3418 13.57637941657016"}}, "geometry": {"type": "Point", "coordinates": [-158.35369788116486, 40.00569193271385]}}, {"type": "Feature", "properties": {"norad_id": 38818, "name": "FENGYUN 1C DEB", "group": "fengyun-1c-debris", "lat": 66.63999532248995, "lon": -126.19793818105288, "alt_km": 692.7940124061315, "timestamp": "2025-12-03T10:52:57.744304+00:00", "meta": {"OBJECT_NAME": "FENGYUN 1C DEB", "OBJECT_ID": "1999-025EVJ", "EPOCH": "2025-11-27T09:30:24.153696", "MEAN_MOTION": 14.39418793, "ECCENTRICITY": 0.00885007, "INCLINATION": 98.3025, "RA_OF_ASC_NODE": 28.1739, "ARG_OF_PERICENTER": 145.1281, "MEAN_ANOMALY": 276.4662, "EPHEMERIS_TYPE": 0, "CLASSIFICATION_TYPE": "U", "NORAD_CAT_ID": 38818, "ELEMENT_SET_NO": 999, "REV_AT_EPOCH": 67027, "BSTAR": 0.00050962146, "MEAN_MOTION_DOT": 1.618e-05, "MEAN_MOTION_DDOT": 0}, "tle": {"line1": "1 38818U 99025EVJ 25331.39611289  .00001618  00000+0  50962-3 0  9996", "line2": "2 38818  98.3025  28.1739 0088500 145.1281 276.4662 14.39418793670274"}}, "geometry": {"type": "Point", "coordinates": [-126.19793818105288, 66.63999532248995]}}, {"type": "Feature", "properties": {"norad_id": 38819, "name": "FENGYUN 1C DEB", "group": "fengyun-1c-debris", "lat": 24.264956511211988, "lon": -33.401437443772444, "alt_km": 881.5379999672778, "timestamp": "2025-12-03T10:52:57.744314+00:00", "meta": {"OBJECT_NAME": "FENGYUN 1C DEB", "OBJECT_ID": "1999-025EVK", "EPOCH": "2025-11-30T19:03:47.354112", "MEAN_MOTION": 14.19336653, "ECCENTRICITY": 0.00792799, "INCLINATION": 98.6177, "RA_OF_ASC_NODE": 327.9316, "ARG_OF_PERICENTER": 229.2227, "MEAN_ANOMALY": 255.6081, "EPHEMERIS_TYPE": 0, "CLASSIFICATION_TYPE": "U", "NORAD_CAT_ID": 38819, "ELEMENT_SET_NO": 999, "REV_AT_EPOCH": 63308, "BSTAR": 0.00044451105, "MEAN_MOTION_DOT": 9.2e-06, "MEAN_MOTION_DDOT": 0}, "tle": {"line1": "1 38819U 99025EVK 25334.79429808  .00000920  00000+0  44451-3 0  9999", "line2": "2 38819  98.6177 327.9316 0079279 229.2227 255.6081 14.19336653633088"}}, "geometry": {"type": "Point", "coordinates": [-33.401437443772444, 24.264956511211988]}}]}